[{"OBJECT_NAME":"ONEWEB-0598","OBJECT_ID":"2023-004Q","EPOCH":"2026-03-09T23:23:13.985952","MEAN_MOTION":13.11416908,"ECCENTRICITY":0.00024004,"INCLINATION":87.886,"RA_OF_ASC_NODE":40.7972,"ARG_OF_PERICENTER":89.3726,"MEAN_ANOMALY":270.7677,"EPHEMERIS_TYPE":0,"CLASSIFICATION_TYPE":"U","NORAD_CAT_ID":55154,"ELEMENT_SET_NO":999,"REV_AT_EPOCH":15289,"BSTAR":0.00099479977,"MEAN_MOTION_DOT":3.65e-6,"MEAN_MOTION_DDOT":0},{"OBJECT_NAME":"COSMOS 252 DEB","OBJECT_ID":"1968-097ED","EPOCH":"2026-03-08T16:06:26.591904","MEAN_MOTION":13.37665875,"ECCENTRICITY":0.0547424,"INCLINATION":62.2104,"RA_OF_ASC_NODE":158.854,"ARG_OF_PERICENTER":329.8439,"MEAN_ANOMALY":27.2073,"EPHEMERIS_TYPE":0,"CLASSIFICATION_TYPE":"U","NORAD_CAT_ID":18648,"ELEMENT_SET_NO":999,"REV_AT_EPOCH":64212,"BSTAR":0.0019644225,"MEAN_MOTION_DOT":2.374e-5,"MEAN_MOTION_DDOT":0}]
